BEESAT-2
1 39136U 13015G   15071.76859927  .00008778  00000-0  55495-3 0  9990
2 39136 064.8756 007.3043 0034692 264.1962 095.5204 15.09073105104103
LO-75
1 39382U 13064C   14295.69194059  .07301741  00000-0  36367-2 0  9993
2 39382 040.4713 030.2705 0002289 341.7175 018.4586 16.19795749470823
ZACUBE-1
1 39417U 13066B   15071.89334242  .00002162  00000-0  28777-3 0  9994
2 39417 097.7408 137.9948 0062320 090.3856 270.4497 14.79335640 70390
TRITON-1
1 39427U 13066M   15071.93762326  .00001767  00000-0  29655-3 0  9994
2 39427 097.7278 128.3078 0117759 114.1834 247.1733 14.66352750 69762
DELFIN3XT
1 39428U 13066N   15071.78547266  .00002849  00000-0  48165-3 0  9991
2 39428 097.7276 126.6601 0126801 118.9465 242.4523 14.64882136 69639
GOMX-1
1 39430U 13066Q   15072.12735772  .00001717  00000-0  32697-3 0  9990
2 39430 097.7218 122.1300 0155146 131.9360 229.5183 14.57761493 69382
MO-76
1 39436U 13066W   15071.88293416  .00027111  00000-0  20776-2 0  9992
2 39436 097.7532 147.7889 0023497 070.1003 290.2750 15.01582273 71018
LO-74
1 39440U 13066AA  15071.89970714  .00001977  00000-0  29035-3 0  9991
2 39440 097.7362 134.1460 0084054 098.9303 262.1432 14.74183423 70158
PUCPSAT-1
1 39442U 13066AC  15071.94528950  .00003672  00000-0  40170-3 0  9997
2 39442 097.7480 144.1692 0034828 081.6109 278.9053 14.87982049 69557
SHINAISAT
1 39572U 14009A   14328.13084988  .28848087  76253-5  66603-3 0  9996
2 39572 064.9728 197.0096 0013534 259.7861 100.1802 16.45181032 42403
TEIKYOSAT
1 39576U 14009E   14297.85867254  .09345816  76764-5  25176-3 0  9997
2 39576 064.9818 300.5833 0008491 317.3597 044.3862 16.45008906 37698
CO-77
1 39577U 14009F   14244.78324653  .10543803  76292-5  32273-3 0  9993
2 39577 064.9920 123.7668 0014904 269.7208 091.1897 16.43552757 29380
SPROUT
1 39770U 14029E   15072.01150095  .00000965  00000-0  12365-3 0  9998
2 39770 097.8683 170.1848 0010789 149.7261 210.4554 14.83513637 43372
POPSAT-HIP1
1 40028U 14033U   15072.15073042  .00002562  00000-0  29511-3 0  9998
2 40028 097.9646 332.3145 0015347 132.1550 228.0973 14.86528415 39518
EO-80
1 40032U 14033Y   15072.12738255  .00002549  00000-0  29569-3 0  9992
2 40032 097.9618 332.0598 0013706 127.3925 232.8519 14.86253199 39513
VELOX-1
1 40057U 14034E   15072.11647112  .00002634  00000-0  39588-3 0  9997
2 40057 098.2224 148.6481 0011633 179.7111 180.4102 14.75345059 37715
DAURIA DX 1
1 40071U 14037C   15072.14277512  .00001213  00000-0  16720-3 0  9997
2 40071 098.3669 139.5759 0008669 179.4407 180.6828 14.80159693 36586
