Satellite: BEESAT-2
Catalog number: 39136
Epoch time:      15071.76859927
Element set:     999
Inclination:      064.8756 deg
RA of node:       007.3043 deg
Eccentricity:    0.0034692
Arg of perigee:   264.1962 deg
Mean anomaly:     095.5204 deg
Mean motion:   15.09073105 rev/day
Decay rate:      8.778e-05 rev/day^2
Epoch rev:           10410
Checksum:              326

Satellite: LO-75
Catalog number: 39382
Epoch time:      14295.69194059
Element set:     999
Inclination:      040.4713 deg
RA of node:       030.2705 deg
Eccentricity:    0.0002289
Arg of perigee:   341.7175 deg
Mean anomaly:     018.4586 deg
Mean motion:   16.19795749 rev/day
Decay rate:   7.301741e-02 rev/day^2
Epoch rev:           47082
Checksum:              353

Satellite: ZACUBE-1
Catalog number: 39417
Epoch time:      15071.89334242
Element set:     999
Inclination:      097.7408 deg
RA of node:       137.9948 deg
Eccentricity:    0.0062320
Arg of perigee:   090.3856 deg
Mean anomaly:     270.4497 deg
Mean motion:   14.79335640 rev/day
Decay rate:      2.162e-05 rev/day^2
Epoch rev:            7039
Checksum:              335

Satellite: TRITON-1
Catalog number: 39427
Epoch time:      15071.93762326
Element set:     999
Inclination:      097.7278 deg
RA of node:       128.3078 deg
Eccentricity:    0.0117759
Arg of perigee:   114.1834 deg
Mean anomaly:     247.1733 deg
Mean motion:   14.66352750 rev/day
Decay rate:      1.767e-05 rev/day^2
Epoch rev:            6976
Checksum:              350

Satellite: DELFIN3XT
Catalog number: 39428
Epoch time:      15071.78547266
Element set:     999
Inclination:      097.7276 deg
RA of node:       126.6601 deg
Eccentricity:    0.0126801
Arg of perigee:   118.9465 deg
Mean anomaly:     242.4523 deg
Mean motion:   14.64882136 rev/day
Decay rate:      2.849e-05 rev/day^2
Epoch rev:            6963
Checksum:              347

Satellite: GOMX-1
Catalog number: 39430
Epoch time:      15072.12735772
Element set:     999
Inclination:      097.7218 deg
RA of node:       122.1300 deg
Eccentricity:    0.0155146
Arg of perigee:   131.9360 deg
Mean anomaly:     229.5183 deg
Mean motion:   14.57761493 rev/day
Decay rate:      1.717e-05 rev/day^2
Epoch rev:            6938
Checksum:              312

Satellite: MO-76
Catalog number: 39436
Epoch time:      15071.88293416
Element set:     999
Inclination:      097.7532 deg
RA of node:       147.7889 deg
Eccentricity:    0.0023497
Arg of perigee:   070.1003 deg
Mean anomaly:     290.2750 deg
Mean motion:   15.01582273 rev/day
Decay rate:     2.7111e-04 rev/day^2
Epoch rev:            7101
Checksum:              321

Satellite: LO-74
Catalog number: 39440
Epoch time:      15071.89970714
Element set:     999
Inclination:      097.7362 deg
RA of node:       134.1460 deg
Eccentricity:    0.0084054
Arg of perigee:   098.9303 deg
Mean anomaly:     262.1432 deg
Mean motion:   14.74183423 rev/day
Decay rate:      1.977e-05 rev/day^2
Epoch rev:            7015
Checksum:              326

Satellite: PUCPSAT-1
Catalog number: 39442
Epoch time:      15071.94528950
Element set:     999
Inclination:      097.7480 deg
RA of node:       144.1692 deg
Eccentricity:    0.0034828
Arg of perigee:   081.6109 deg
Mean anomaly:     278.9053 deg
Mean motion:   14.87982049 rev/day
Decay rate:      3.672e-05 rev/day^2
Epoch rev:            6955
Checksum:              356

Satellite: SHINAISAT
Catalog number: 39572
Epoch time:      14328.13084988
Element set:     999
Inclination:      064.9728 deg
RA of node:       197.0096 deg
Eccentricity:    0.0013534
Arg of perigee:   259.7861 deg
Mean anomaly:     100.1802 deg
Mean motion:   16.45181032 rev/day
Decay rate:  2.8848087e-01 rev/day^2
Epoch rev:            4240
Checksum:              336

Satellite: TEIKYOSAT
Catalog number: 39576
Epoch time:      14297.85867254
Element set:     999
Inclination:      064.9818 deg
RA of node:       300.5833 deg
Eccentricity:    0.0008491
Arg of perigee:   317.3597 deg
Mean anomaly:     044.3862 deg
Mean motion:   16.45008906 rev/day
Decay rate:   9.345816e-02 rev/day^2
Epoch rev:            3769
Checksum:              372

Satellite: CO-77
Catalog number: 39577
Epoch time:      14244.78324653
Element set:     999
Inclination:      064.9920 deg
RA of node:       123.7668 deg
Eccentricity:    0.0014904
Arg of perigee:   269.7208 deg
Mean anomaly:     091.1897 deg
Mean motion:   16.43552757 rev/day
Decay rate:  1.0543803e-01 rev/day^2
Epoch rev:            2938
Checksum:              371

Satellite: SPROUT
Catalog number: 39770
Epoch time:      15072.01150095
Element set:     999
Inclination:      097.8683 deg
RA of node:       170.1848 deg
Eccentricity:    0.0010789
Arg of perigee:   149.7261 deg
Mean anomaly:     210.4554 deg
Mean motion:   14.83513637 rev/day
Decay rate:       9.65e-06 rev/day^2
Epoch rev:            4337
Checksum:              322

Satellite: POPSAT-HIP1
Catalog number: 40028
Epoch time:      15072.15073042
Element set:     999
Inclination:      097.9646 deg
RA of node:       332.3145 deg
Eccentricity:    0.0015347
Arg of perigee:   132.1550 deg
Mean anomaly:     228.0973 deg
Mean motion:   14.86528415 rev/day
Decay rate:      2.562e-05 rev/day^2
Epoch rev:            3951
Checksum:              295

Satellite: EO-80
Catalog number: 40032
Epoch time:      15072.12738255
Element set:     999
Inclination:      097.9618 deg
RA of node:       332.0598 deg
Eccentricity:    0.0013706
Arg of perigee:   127.3925 deg
Mean anomaly:     232.8519 deg
Mean motion:   14.86253199 rev/day
Decay rate:      2.549e-05 rev/day^2
Epoch rev:            3951
Checksum:              333

Satellite: VELOX-1
Catalog number: 40057
Epoch time:      15072.11647112
Element set:     999
Inclination:      098.2224 deg
RA of node:       148.6481 deg
Eccentricity:    0.0011633
Arg of perigee:   179.7111 deg
Mean anomaly:     180.4102 deg
Mean motion:   14.75345059 rev/day
Decay rate:      2.634e-05 rev/day^2
Epoch rev:            3771
Checksum:              283

Satellite: DAURIA DX 1
Catalog number: 40071
Epoch time:      15072.14277512
Element set:     999
Inclination:      098.3669 deg
RA of node:       139.5759 deg
Eccentricity:    0.0008669
Arg of perigee:   179.4407 deg
Mean anomaly:     180.6828 deg
Mean motion:   14.80159693 rev/day
Decay rate:      1.213e-05 rev/day^2
Epoch rev:            3658
Checksum:              341

